OBJECT_NAME,OBJECT_ID,EPOCH,MEAN_MOTION,ECCENTRICITY,INCLINATION,RA_OF_ASC_NODE,ARG_OF_PERICENTER,MEAN_ANOMALY,EPHEMERIS_TYPE,CLASSIFICATION_TYPE,NORAD_CAT_ID,ELEMENT_SET_NO,REV_AT_EPOCH,BSTAR,MEAN_MOTION_DOT,MEAN_MOTION_DDOT
FLOCK 4H-1,2025-276AQ,2026-05-28T18:22:49.960128,15.20305051,.0002936,97.4187,222.7607,58.2947,301.8574,0,U,66704,999,2748,.35895E-3,.7735E-4,0
FLOCK 4H-2,2025-276AR,2026-05-29T05:00:10.696032,15.20565144,.0002401,97.4185,223.2285,66.1828,293.9659,0,U,66705,999,2755,.37434E-3,.8131E-4,0
FLOCK 4H-3,2025-276AS,2026-05-29T04:06:49.620960,15.19694516,.000545,97.4251,223.1369,76.9549,283.2294,0,U,66706,999,2753,.37056E-3,.7848E-4,0
FLOCK 4H-4,2025-276AT,2026-05-29T04:48:51.969600,15.19463257,.0006143,97.4235,223.0588,77.2353,282.9568,0,U,66707,999,2753,.39103E-3,.8231E-4,0
FLOCK 4H-5,2025-276AU,2026-05-29T03:42:39.752064,15.20363281,.0002029,97.4185,223.1618,80.7286,279.4179,0,U,66708,999,2754,.394E-3,.8512E-4,0
FLOCK 4H-6,2025-276AV,2026-05-29T04:35:11.959296,15.20042345,.0004279,97.4237,223.2317,59.5289,300.6368,0,U,66709,999,2754,.37951E-3,.8121E-4,0
FLOCK 4H-7,2025-276AW,2026-05-29T03:58:27.838272,15.19796022,.0003944,97.4195,223.0066,96.7063,263.4621,0,U,66710,999,2753,.39997E-3,.8501E-4,0
FLOCK 4H-8,2025-276AX,2026-05-29T03:49:48.982944,15.19883722,.0004922,97.4229,223.1189,87.8686,272.3112,0,U,66711,999,2753,.4262E-3,.9088E-4,0
FLOCK 4H-9,2025-276AY,2026-05-29T04:23:00.432096,15.20180827,.0004417,97.4224,223.2205,62.6783,297.4901,0,U,66712,999,2754,.39591E-3,.8509E-4,0
FLOCK 4H-10,2025-276AZ,2026-05-29T04:31:27.713280,15.19585209,.0006011,97.4200,222.9942,77.5950,282.5957,0,U,66713,999,2753,.36953E-3,.7802E-4,0
FLOCK 4H-11,2025-276BA,2026-05-28T18:36:34.598880,15.22015764,.0004317,97.4209,222.9738,92.5397,267.6333,0,U,66714,999,2749,.78836E-3,.17972E-3,0
FLOCK 4H-12,2025-276BB,2026-05-29T04:05:48.895584,15.20233309,.0003117,97.4198,223.1590,60.9857,299.1690,0,U,66715,999,2785,.41441E-3,.8923E-4,0
FLOCK 4H-13,2025-276BC,2026-05-29T03:30:10.951776,15.20450676,.0002031,97.4230,223.2768,62.4036,297.7405,0,U,66716,999,2754,.40504E-3,.8775E-4,0
FLOCK 4H-14,2025-276BD,2026-05-29T04:25:39.804672,15.20771618,.0001713,97.4214,223.3437,65.8153,294.3261,0,U,66717,999,2680,.3685E-3,.8051E-4,0
FLOCK 4H-15,2025-276BE,2026-05-29T03:33:34.760736,15.19324598,.0005899,97.4231,222.9623,88.0923,272.0988,0,U,66718,999,2752,.40268E-3,.8445E-4,0
FLOCK 4H-16,2025-276BF,2026-05-29T04:40:26.691168,15.19559953,.0005891,97.4251,223.0899,78.3034,281.8861,0,U,66719,999,2753,.40133E-3,.8474E-4,0
FLOCK 4H-18,2025-276BH,2026-05-29T04:46:59.474208,15.19519615,.0005539,97.4187,222.9475,95.7630,264.4237,0,U,66721,999,2753,.3919E-3,.8263E-4,0
FLOCK 4H-19,2025-276BJ,2026-05-28T18:37:23.731968,15.20784167,.0001993,97.4188,222.9058,49.9911,310.1499,0,U,66722,999,2678,.31225E-3,.6813E-4,0
FLOCK 4H-20,2025-276BK,2026-05-29T04:15:13.993056,15.20923751,.0003046,97.4223,223.3743,40.4779,319.6682,0,U,66723,999,2680,.34833E-3,.7641E-4,0
FLOCK 4H-21,2025-276BL,2026-05-28T16:04:09.049152,15.20510219,.0002952,97.4191,222.7484,45.5272,314.6205,0,U,66724,999,2672,.32837E-3,.7112E-4,0
FLOCK 4H-22,2025-276BM,2026-05-29T03:47:07.988640,15.19908176,.0004261,97.4179,222.9849,98.0671,262.1047,0,U,66725,999,2753,.42792E-3,.9131E-4,0
FLOCK 4H-23,2025-276BN,2026-05-29T04:45:12.648384,15.19500149,.0005899,97.4246,223.0962,72.5247,287.6632,0,U,66726,999,2753,.40448E-3,.8526E-4,0
FLOCK 4H-24,2025-276BP,2026-05-29T04:27:51.753024,15.19597663,.0005575,97.4248,223.1087,84.5622,275.6249,0,U,66727,999,2753,.38444E-3,.8122E-4,0
FLOCK 4H-25,2025-276BQ,2026-05-29T05:04:59.223648,15.20424897,.0001435,97.4203,223.2725,80.2046,279.9351,0,U,66728,999,2683,.35112E-3,.7591E-4,0
FLOCK 4H-26,2025-276BR,2026-05-28T16:25:29.562816,15.19336322,.0006423,97.4201,222.4448,83.5267,276.6699,0,U,66729,999,2745,.40122E-3,.8417E-4,0
FLOCK 4H-27,2025-276BS,2026-05-29T04:05:42.108864,15.20220203,.0001916,97.4176,223.1143,80.5028,279.6424,0,U,66730,999,2754,.3779E-3,.8127E-4,0
FLOCK 4H-28,2025-276BT,2026-05-29T05:00:20.841984,15.19401296,.0006055,97.4188,222.9369,84.1881,276.0043,0,U,66731,999,2753,.40456E-3,.8504E-4,0
FLOCK 4H-29,2025-276BU,2026-05-29T04:40:45.447744,15.19482717,.0005021,97.4180,222.9324,93.3345,266.8464,0,U,66732,999,2753,.3726E-3,.7843E-4,0
FLOCK 4H-30,2025-276BV,2026-05-29T04:34:22.137600,15.19579453,.0005866,97.4241,223.0892,84.0995,276.0909,0,U,66733,999,2753,.38026E-3,.8029E-4,0
FLOCK 4H-31,2025-276BW,2026-05-29T00:10:33.444192,15.19384866,.000541,97.4179,222.7230,90.2806,269.9049,0,U,66734,999,2750,.39574E-3,.8312E-4,0
