FLOCK 4H-1              
1 66704U 25276AQ  26148.76585602  .00007735  00000+0  35895-3 0  9999
2 66704  97.4187 222.7607 0002936  58.2947 301.8574 15.20305051 27483
FLOCK 4H-2              
1 66705U 25276AR  26149.20845713  .00008131  00000+0  37434-3 0  9994
2 66705  97.4185 223.2285 0002401  66.1828 293.9659 15.20565144 27557
FLOCK 4H-3              
1 66706U 25276AS  26149.17140765  .00007848  00000+0  37056-3 0  9990
2 66706  97.4251 223.1369 0005450  76.9549 283.2294 15.19694516 27539
FLOCK 4H-4              
1 66707U 25276AT  26149.20060150  .00008231  00000+0  39103-3 0  9996
2 66707  97.4235 223.0588 0006143  77.2353 282.9568 15.19463257 27537
FLOCK 4H-5              
1 66708U 25276AU  26149.15462676  .00008512  00000+0  39400-3 0  9992
2 66708  97.4185 223.1618 0002029  80.7286 279.4179 15.20363281 27548
FLOCK 4H-6              
1 66709U 25276AV  26149.19111064  .00008121  00000+0  37951-3 0  9994
2 66709  97.4237 223.2317 0004279  59.5289 300.6368 15.20042345 27542
FLOCK 4H-7              
1 66710U 25276AW  26149.16559998  .00008501  00000+0  39997-3 0  9999
2 66710  97.4195 223.0066 0003944  96.7063 263.4621 15.19796022 27530
FLOCK 4H-8              
1 66711U 25276AX  26149.15959471  .00009088  00000+0  42620-3 0  9997
2 66711  97.4229 223.1189 0004922  87.8686 272.3112 15.19883722 27533
FLOCK 4H-9              
1 66712U 25276AY  26149.18264389  .00008509  00000+0  39591-3 0  9998
2 66712  97.4224 223.2205 0004417  62.6783 297.4901 15.20180827 27540
FLOCK 4H-10             
1 66713U 25276AZ  26149.18851520  .00007802  00000+0  36953-3 0  9992
2 66713  97.4200 222.9942 0006011  77.5950 282.5957 15.19585209 27538
FLOCK 4H-11             
1 66714U 25276BA  26148.77540045  .00017972  00000+0  78836-3 0  9999
2 66714  97.4209 222.9738 0004317  92.5397 267.6333 15.22015764 27495
FLOCK 4H-12             
1 66715U 25276BB  26149.17070481  .00008923  00000+0  41441-3 0  9995
2 66715  97.4198 223.1590 0003117  60.9857 299.1690 15.20233309 27850
FLOCK 4H-13             
1 66716U 25276BC  26149.14596009  .00008775  00000+0  40504-3 0  9996
2 66716  97.4230 223.2768 0002031  62.4036 297.7405 15.20450676 27548
FLOCK 4H-14             
1 66717U 25276BD  26149.18448848  .00008051  00000+0  36850-3 0  9994
2 66717  97.4214 223.3437 0001713  65.8153 294.3261 15.20771618 26801
FLOCK 4H-15             
1 66718U 25276BE  26149.14831899  .00008445  00000+0  40268-3 0  9998
2 66718  97.4231 222.9623 0005899  88.0923 272.0988 15.19324598 27522
FLOCK 4H-16             
1 66719U 25276BF  26149.19475337  .00008474  00000+0  40133-3 0  9998
2 66719  97.4251 223.0899 0005891  78.3034 281.8861 15.19559953 27533
FLOCK 4H-18             
1 66721U 25276BH  26149.19929947  .00008263  00000+0  39190-3 0  9999
2 66721  97.4187 222.9475 0005539  95.7630 264.4237 15.19519615 27531
FLOCK 4H-19             
1 66722U 25276BJ  26148.77596912  .00006813  00000+0  31225-3 0  9995
2 66722  97.4188 222.9058 0001993  49.9911 310.1499 15.20784167 26786
FLOCK 4H-20             
1 66723U 25276BK  26149.17724529  .00007641  00000+0  34833-3 0  9996
2 66723  97.4223 223.3743 0003046  40.4779 319.6682 15.20923751 26807
FLOCK 4H-21             
1 66724U 25276BL  26148.66954918  .00007112  00000+0  32837-3 0  9992
2 66724  97.4191 222.7484 0002952  45.5272 314.6205 15.20510219 26724
FLOCK 4H-22             
1 66725U 25276BM  26149.15773135  .00009131  00000+0  42792-3 0  9992
2 66725  97.4179 222.9849 0004261  98.0671 262.1047 15.19908176 27531
FLOCK 4H-23             
1 66726U 25276BN  26149.19806306  .00008526  00000+0  40448-3 0  9997
2 66726  97.4246 223.0962 0005899  72.5247 287.6632 15.19500149 27539
FLOCK 4H-24             
1 66727U 25276BP  26149.18601566  .00008122  00000+0  38444-3 0  9993
2 66727  97.4248 223.1087 0005575  84.5622 275.6249 15.19597663 27530
FLOCK 4H-25             
1 66728U 25276BQ  26149.21179657  .00007591  00000+0  35112-3 0  9997
2 66728  97.4203 223.2725 0001435  80.2046 279.9351 15.20424897 26839
FLOCK 4H-26             
1 66729U 25276BR  26148.68436994  .00008417  00000+0  40122-3 0  9993
2 66729  97.4201 222.4448 0006423  83.5267 276.6699 15.19336322 27455
FLOCK 4H-27             
1 66730U 25276BS  26149.17062626  .00008127  00000+0  37790-3 0  9992
2 66730  97.4176 223.1143 0001916  80.5028 279.6424 15.20220203 27543
FLOCK 4H-28             
1 66731U 25276BT  26149.20857456  .00008504  00000+0  40456-3 0  9992
2 66731  97.4188 222.9369 0006055  84.1881 276.0043 15.19401296 27538
FLOCK 4H-29             
1 66732U 25276BU  26149.19497046  .00007843  00000+0  37260-3 0  9990
2 66732  97.4180 222.9324 0005021  93.3345 266.8464 15.19482717 27532
FLOCK 4H-30             
1 66733U 25276BV  26149.19053400  .00008029  00000+0  38026-3 0  9991
2 66733  97.4241 223.0892 0005866  84.0995 276.0909 15.19579453 27539
FLOCK 4H-31             
1 66734U 25276BW  26149.00733153  .00008312  00000+0  39574-3 0  9996
2 66734  97.4179 222.7230 0005410  90.2806 269.9049 15.19384866 27502
